[{"OBJECT_NAME":"STARLINK-30488","OBJECT_ID":"2023-147U","EPOCH":"2026-03-09T02:48:31.979520","MEAN_MOTION":15.02537293,"ECCENTRICITY":9.673e-5,"INCLINATION":43.0042,"RA_OF_ASC_NODE":329.0116,"ARG_OF_PERICENTER":275.0886,"MEAN_ANOMALY":84.9846,"EPHEMERIS_TYPE":0,"CLASSIFICATION_TYPE":"U","NORAD_CAT_ID":57931,"ELEMENT_SET_NO":999,"REV_AT_EPOCH":13653,"BSTAR":-1.4490491e-5,"MEAN_MOTION_DOT":-3.99e-6,"MEAN_MOTION_DDOT":0},{"OBJECT_NAME":"NEONSAT-1A","OBJECT_ID":"2026-019A","EPOCH":"2026-03-09T21:53:31.879392","MEAN_MOTION":15.0780294,"ECCENTRICITY":0.00137261,"INCLINATION":97.411,"RA_OF_ASC_NODE":192.4819,"ARG_OF_PERICENTER":167.4713,"MEAN_ANOMALY":192.686,"EPHEMERIS_TYPE":0,"CLASSIFICATION_TYPE":"U","NORAD_CAT_ID":67614,"ELEMENT_SET_NO":999,"REV_AT_EPOCH":585,"BSTAR":0.00027109929,"MEAN_MOTION_DOT":4.096e-5,"MEAN_MOTION_DDOT":0}]
